******************************************************************************* Revised: Jun 17, 2016                Saturn                                699  PHYSICAL DATA (updated 2009-May-26):  Mass (10^26 kg)       = 5.68319         Density (g/cm^3)       =  0.687+-.001  Equat. radius (1 bar) = 60268+-4 km     Polar radius (km)      = 54364+-10  Volumetric mean radius= 58232+-6 km     Flattening             =  0.09796  Rotation period       = 10h 39m 22.4s   Rot. rate(10^-4 rad/s) =  1.63785   m = w^2a^3/GM         =  0.15481        Hydrostatic flat., fh  =  0.09829  Inferred rot. period  = 10.61+-0.02 hr  ks = 3*J2/m            =  0.317  Mom. of inert. I/MRo^2=  0.210          I/MRo^2 (upper bound)  =  0.231   Rocky core mass (Mc/M)=  0.1027         Y factor (He/H ratio)  =    GM (km^3/s^2)         = 37931207.8      GM 1-sigma (km^3/s^2)  = +- 98  Equ. grav, ge (m/s^2) = 10.44           Pol. grav, gp (m/s^2)  = 12.14+-0.01  Geometric albedo      =  0.47           Visual magnitude V(1,0)= -8.88  Vis. mag. (opposition)= +0.67           Obliquity to orbit     = 26.73 deg  Sidereal orbit period = 29.447498 yr    Sidereal orbit period  = 10755.698 d  Mean daily motion     = 0.0334979 deg/d Mean orbit velocity    =  9.6624 km/s  Atmos. temp. (1 bar)  = 134+-4 K        Heat flow/mass (x10^7) = 15 erg/gm*s  Planetary Solar Const =  15.04 W/m^2    Dipole tilt/offset     = 0.0deg/0.0Rp   Escape velocity (km/s)=  35.5           Mag.dip.mom(gauss-Rp^3)= 0.21  Aroche(ice)/Rp        =  2.71           Hill's sphere rad. Rp  = 1100*******************************************************************************  *******************************************************************************Ephemeris / WWW_USER Fri Oct 20 06:52:07 2017 Pasadena, USA      / Horizons    *******************************************************************************Target body name: Saturn (699)                    {source: sat389}Center body name: Solar System Barycenter (0)     {source: DE431mx}Center-site name: BODY CENTER*******************************************************************************Start time      : A.D. 2017-Oct-20 00:00:00.0000 TDBStop  time      : A.D. 2017-Oct-21 00:00:00.0000 TDBStep-size       : 1440 minutes*******************************************************************************Center geodetic : 0.00000000,0.00000000,0.0000000 {E-lon(deg),Lat(deg),Alt(km)}Center cylindric: 0.00000000,0.00000000,0.0000000 {E-lon(deg),Dxy(km),Dz(km)}Center radii    : (undefined)                                                  Output units    : AU-D                                                         Output type     : GEOMETRIC cartesian statesOutput format   : 3 (position, velocity, LT, range, range-rate)Reference frame : ICRF/J2000.0                                                 Coordinate systm: Ecliptic and Mean Equinox of Reference Epoch                 *******************************************************************************JDTDB   X     Y     Z   VX    VY    VZ   LT    RG    RR*******************************************************************************$$SOE2458046.500000000 = A.D. 2017-Oct-20 00:00:00.0000 TDB  X =-3.369277467674985E-01 Y =-1.004985402690239E+01 Z = 1.881475188874106E-01 VX= 5.269910272418428E-03 VY=-2.053763749248873E-04 VZ=-2.059570456178141E-04 LT= 5.808589151826455E-02 RG= 1.005726035048569E+01 RR= 2.482517892402259E-052458047.500000000 = A.D. 2017-Oct-21 00:00:00.0000 TDB  X =-3.316576970400099E-01 Y =-1.005005784625960E+01 Z = 1.879414763390150E-01 VX= 5.270170891601157E-03 VY=-2.022488866754567E-04 VZ=-2.061333344234492E-04 LT= 5.808603387293407E-02 RG= 1.005728499843265E+01 RR= 2.445782001388187E-05$$EOE*******************************************************************************Coordinate system description:  Ecliptic and Mean Equinox of Reference Epoch    Reference epoch: J2000.0    XY-plane: plane of the Earth's orbit at the reference epoch              Note: obliquity of 84381.448 arcseconds wrt ICRF equator (IAU76)    X-axis  : out along ascending node of instantaneous plane of the Earth's              orbit and the Earth's mean equator at the reference epoch    Z-axis  : perpendicular to the xy-plane in the directional (+ or -) sense              of Earth's north pole at the reference epoch.  Symbol meaning [1 au= 149597870.700 km, 1 day= 86400.0 s]:    JDTDB    Julian Day Number, Barycentric Dynamical Time      X      X-component of position vector (au)                                     Y      Y-component of position vector (au)                                     Z      Z-component of position vector (au)                                     VX     X-component of velocity vector (au/day)                                 VY     Y-component of velocity vector (au/day)                                 VZ     Z-component of velocity vector (au/day)                                 LT     One-way down-leg Newtonian light-time (day)                             RG     Range; distance from coordinate center (au)                             RR     Range-rate; radial velocity wrt coord. center (au/day)            Geometric states/elements have no aberrations applied. Computations by ...     Solar System Dynamics Group, Horizons On-Line Ephemeris System     4800 Oak Grove Drive, Jet Propulsion Laboratory     Pasadena, CA  91109   USA     Information: http://ssd.jpl.nasa.gov/     Connect    : telnet://ssd.jpl.nasa.gov:6775  (via browser)                  http://ssd.jpl.nasa.gov/?horizons                  telnet ssd.jpl.nasa.gov 6775    (via command-line)     Author     : Jon.D.Giorgini@jpl.nasa.gov*******************************************************************************